<!DOCTYPE html PUBLIC "-//W3C//DTD XHTML 1.0 Strict//EN" "http://www.w3.org/TR/xhtml1/DTD/xhtml1-strict.dtd">
<html xmlns="http://www.w3.org/1999/xhtml">
<head>
<meta http-equiv="Content-Type" content="text/html; charset=iso-8859-1"/>
<title>404 - File Not Found.</title>
<style type="text/css">
<!--
body{margin:0;font-size:.7em;font-family:Verdana, Arial, Helvetica, sans-serif;background:#EEEEEE;}
fieldset{padding:0 15px 10px 15px;}
h1{font-size:2.4em;margin:0;color:#FFF;}
h2{font-size:1.7em;margin:0;color:#CC0000;}
h3{font-size:1.2em;margin:10px 0 0 0;color:#000000;}
#header{width:96%;margin:0 0 0 0;padding:6px 2% 6px 2%;font-family:"trebuchet MS", Verdana, sans-serif;color:#FFF;
background-color:#555555;}
#content{margin:0 0 0 2%;position:relative;}
.content-container{background:#FFF;width:96%;margin-top:8px;padding:10px;position:relative;}
-->
</style>
</head>
<body>
<div id="header"><h1>Server Error</h1></div>
<div id="content">
 <div class="content-container"><fieldset>
  <h2>404 - File Not Found.</h2>
  <h3>File not found for celestrak.org/NORAD/elements/active.txt.</h3>
  <h3>Please contact <a href="mailto:ts.kelso@celestrak.org">ts.kelso@celestrak.org</a> if you have other questions.</h3>
 </fieldset></div>
</div>
</body>
</html>
LUCKY-7                 
1 44406U 19038W   24002.89456516  .00020371  00000+0  65482-3 0  9991
2 44406  97.6983 353.0274 0014868 331.7571  28.2862 15.32193420248811
BEESAT 9                
1 44412U 19038AC  24002.92917944  .00049236  00000+0  10027-2 0  9994
2 44412  97.6867 357.3791 0009121 326.5209  33.5462 15.46061648248834
JAISAT-1                
1 44419U 19038F   24002.92049705  .00048419  00000+0  98887-3 0  9995
2 44419  97.6847 358.4845 0008463 322.2930  37.7724 15.45988368249219
DUCHIFAT-3              
1 44854U 19089C   24003.12952451  .00009978  00000+0  59282-3 0  9991
2 44854  36.9615 332.5349 0008294 185.6676 174.3976 15.10775369223039
M2 PATHFINDER           
1 45727U 20037E   24002.47964111  .00003022  00000+0  27695-3 0  9996
2 45727  97.7634 180.0816 0011008 325.1750  34.8749 14.95622304191013
NETSAT-4                
1 46504U 20068U   24002.81390422  .00008239  00000+0  49507-3 0  9991
2 46504  97.7872 316.2330 0009396 201.7615 158.3217 15.11116178179015
NETSAT-3                
1 46505U 20068V   24002.81466907  .00007954  00000+0  48290-3 0  9995
2 46505  97.7846 315.9195 0008360 211.0445 149.0291 15.10761274179018
NETSAT-1                
1 46506U 20068W   24002.79540104  .00005902  00000+0  36807-3 0  9997
2 46506  97.7871 315.6500 0006720 220.6921 139.3806 15.09908881178992
NETSAT-2                
1 46507U 20068X   24002.82163729  .00008187  00000+0  49336-3 0  9995
2 46507  97.7857 315.9279 0005988 227.6337 132.4386 15.11033917178962
WILDTRACKCUBE-SIMBA     
1 47941U 21022K   24003.14514710  .00009243  00000+0  47691-3 0  9991
2 47941  97.4780 261.8657 0017913  10.4380 349.7221 15.16417965153264
BEESAT-6                
1 47957U 21022AB  24002.70427820  .00038618  00000+0  12263-2 0  9998
2 47957  97.4708 266.3151 0013241   3.4134 356.7195 15.32467698153331
SMOG-1                  
1 47964U 21022AJ  24002.73098275  .00037180  00000+0  11277-2 0  9994
2 47964  97.4809 269.0688 0010884 347.3889  12.7080 15.33966278152513
BCCSAT-1                
1 48041U 21022AK  24002.71359763  .00028463  00000+0  99998-3 0  9992
2 48041  97.4800 267.0002 0009720 351.2999   8.8071 15.29303106152350
BEESAT-5                
1 48083U 21022AM  24001.69103764  .00043501  00000+0  12639-2 0  9998
2 48083  97.4576 265.8177 0011553   3.2681 356.8635 15.35280455152376
BEESAT-7                
1 48084U 21022AN  24001.96470935  .00034986  00000+0  11030-2 0  9997
2 48084  97.4733 265.8815 0012691 359.7562   0.3671 15.32726753151960
BEESAT-8                
1 48085U 21022AP  24002.66426084  .00018669  00000+0  80631-3 0  9996
2 48085  97.4817 264.3242 0015638   5.0912 355.0481 15.22436338152467
LEDSAT                  
1 49069U 21073D   24003.14143916  .00011473  00000+0  54863-3 0  9993
2 49069  97.4604  75.9941 0022482 143.4276 216.8499 15.18931486131202
BEIJING 1               
1 28890U 05043A   24003.14684040  .00000470  00000+0  10292-3 0  9992
2 28890  98.1801 127.4761 0014541 201.7349 158.3237 14.62074536969635
HJ-1A                   
1 33320U 08041A   24003.12638508  .00001433  00000+0  19954-3 0  9997
2 33320  97.6359  18.4200 0020199 189.1205 170.9643 14.79090827825804
HJ-1B                   
1 33321U 08041B   24003.11051126  .00001105  00000+0  15240-3 0  9992
2 33321  97.6344  22.9029 0037475 237.4826 122.2763 14.79616502825817
YAOGAN 4                
1 33446U 08061A   24002.77245525  .00001222  00000+0  17172-3 0  9997
2 33446  97.8689 298.0398 0016915 104.4140 255.8951 14.79076884812958
DEIMOS-1                
1 35681U 09041A   24003.11969403  .00000689  00000+0  11467-3 0  9993
2 35681  97.6749 194.0053 0001535 147.3338 212.7966 14.72910736774867
UK-DMC 2                
1 35683U 09041C   24003.11590471  .00001051  00000+0  17205-3 0  9990
2 35683  97.7549 157.9300 0001080  94.1360 265.9972 14.72718238774567
RISAT 1                 
1 38248U 12017A   24002.99350592  .00008362  00000+0  39283-3 0  9992
2 38248  97.5347  20.2531 0005083  99.1104 261.0706 15.19855848644320
DMC3-FM1                
1 40715U 15032A   24003.16518714  .00000799  00000+0  10411-3 0  9994
2 40715  97.7732 246.7434 0007145 110.5799 249.6182 14.83220621456964
DMC3-FM2                
1 40716U 15032B   24003.12098772  .00000836  00000+0  10863-3 0  9991
2 40716  97.7783 247.6618 0008999 115.8908 244.3235 14.83221738456953
DMC3-FM3                
1 40717U 15032C   24003.14260843  .00000800  00000+0  10417-3 0  9990
2 40717  97.7828 248.8682 0010513 113.7359 246.4958 14.83213586456968
<!DOCTYPE html PUBLIC "-//W3C//DTD XHTML 1.0 Strict//EN" "http://www.w3.org/TR/xhtml1/DTD/xhtml1-strict.dtd">
<html xmlns="http://www.w3.org/1999/xhtml">
<head>
<meta http-equiv="Content-Type" content="text/html; charset=iso-8859-1"/>
<title>404 - File Not Found.</title>
<style type="text/css">
<!--
body{margin:0;font-size:.7em;font-family:Verdana, Arial, Helvetica, sans-serif;background:#EEEEEE;}
fieldset{padding:0 15px 10px 15px;}
h1{font-size:2.4em;margin:0;color:#FFF;}
h2{font-size:1.7em;margin:0;color:#CC0000;}
h3{font-size:1.2em;margin:10px 0 0 0;color:#000000;}
#header{width:96%;margin:0 0 0 0;padding:6px 2% 6px 2%;font-family:"trebuchet MS", Verdana, sans-serif;color:#FFF;
background-color:#555555;}
#content{margin:0 0 0 2%;position:relative;}
.content-container{background:#FFF;width:96%;margin-top:8px;padding:10px;position:relative;}
-->
</style>
</head>
<body>
<div id="header"><h1>Server Error</h1></div>
<div id="content">
 <div class="content-container"><fieldset>
  <h2>404 - File Not Found.</h2>
  <h3>File not found for celestrak.org/NORAD/elements/education.txt.</h3>
  <h3>Please contact <a href="mailto:ts.kelso@celestrak.org">ts.kelso@celestrak.org</a> if you have other questions.</h3>
 </fieldset></div>
</div>
</body>
</html>
<!DOCTYPE html PUBLIC "-//W3C//DTD XHTML 1.0 Strict//EN" "http://www.w3.org/TR/xhtml1/DTD/xhtml1-strict.dtd">
<html xmlns="http://www.w3.org/1999/xhtml">
<head>
<meta http-equiv="Content-Type" content="text/html; charset=iso-8859-1"/>
<title>404 - File Not Found.</title>
<style type="text/css">
<!--
body{margin:0;font-size:.7em;font-family:Verdana, Arial, Helvetica, sans-serif;background:#EEEEEE;}
fieldset{padding:0 15px 10px 15px;}
h1{font-size:2.4em;margin:0;color:#FFF;}
h2{font-size:1.7em;margin:0;color:#CC0000;}
h3{font-size:1.2em;margin:10px 0 0 0;color:#000000;}
#header{width:96%;margin:0 0 0 0;padding:6px 2% 6px 2%;font-family:"trebuchet MS", Verdana, sans-serif;color:#FFF;
background-color:#555555;}
#content{margin:0 0 0 2%;position:relative;}
.content-container{background:#FFF;width:96%;margin-top:8px;padding:10px;position:relative;}
-->
</style>
</head>
<body>
<div id="header"><h1>Server Error</h1></div>
<div id="content">
 <div class="content-container"><fieldset>
  <h2>404 - File Not Found.</h2>
  <h3>File not found for celestrak.org/NORAD/elements/engineering.txt.</h3>
  <h3>Please contact <a href="mailto:ts.kelso@celestrak.org">ts.kelso@celestrak.org</a> if you have other questions.</h3>
 </fieldset></div>
</div>
</body>
</html>
GSAT0101 (PRN E11)      
1 37846U 11060A   24002.54655808 -.00000072  00000+0  00000+0 0  9993
2 37846  57.1220   6.0418 0002961 326.4364  33.5675  1.70476020 75965
GSAT0102 (PRN E12)      
1 37847U 11060B   23365.42047421 -.00000081  00000+0  00000+0 0  9998
2 37847  57.1225   6.0994 0004738 311.0401 230.1610  1.70475458 75807
GSAT0103 (PRN E19)      
1 38857U 12055A   24001.99908335  .00000023  00000+0  00000+0 0  9990
2 38857  55.3349 126.2028 0003216 246.1528 113.7858  1.70473590 69850
GSAT0104 (PRN E20)      
1 38858U 12055B   23365.79520336  .00000019  00000+0  00000+0 0  9997
2 38858  55.3345 126.2373 0001431 191.9822 167.9815  1.70473797 69696
GSAT0201 (PRN E18)      
1 40128U 14050A   24001.46065286 -.00000092  00000+0  00000+0 0  9999
2 40128  49.8246 309.7987 1605728 144.8470 226.9148  1.85519674 61667
GSAT0202 (PRN E14)      
1 40129U 14050B   24002.25858942 -.00000091  00000+0  00000+0 0  9996
2 40129  49.8419 308.8407 1603954 145.6830 225.8338  1.85520363 63843
GSAT0203 (PRN E26)      
1 40544U 15017A   24002.32576956 -.00000074  00000+0  00000+0 0  9992
2 40544  56.9173   6.0044 0005536 268.1996  91.7593  1.70476078 53916
GSAT0204 (PRN E22)      
1 40545U 15017B   23365.23339453 -.00000082  00000+0  00000+0 0  9992
2 40545  56.9233   6.0761 0005171 257.6664 102.2968  1.70475742 16921
GSAT0205 (PRN E24)      
1 40889U 15045A   24001.17515769  .00000026  00000+0  00000+0 0  9998
2 40889  55.2988 246.4146 0005751  26.4577 333.6576  1.70473235 51702
